bbox,cessation,country_id,deprecated,file_hash,fullname,geom_hash,geom_latitude,geom_longitude,id,inception,iso,iso_country,lastmodified,lbl_latitude,lbl_longitude,locality_id,name,parent_id,path,placetype,region_id,source,superseded_by,supersedes,wof_country
"23.818799,44.295861,23.818799,44.295861",uuuu,85633745,,55f84d42d7e1b559b8fa67cd472c716b,,91cde19011e6366ee591b48fe2e687da,44.295861,23.818799,85901699,uuuu,RO,RO,1531932546,44.295861,23.818799,-1,Bordeiu,-1,859/016/99/85901699.geojson,neighbourhood,85687581,mz,,,RO
"21.855186,45.090377,21.855186,45.090377",uuuu,85633745,,ff31d0e28fb1f0db2a5543fd43ca277b,,76973e40544ca56a4a03081993e93563,45.090377,21.855186,85901669,uuuu,RO,RO,1531932539,45.090377,21.855186,101835695,Aurora Banatului,101835695,859/016/69/85901669.geojson,neighbourhood,85687627,mz,,,RO
"28.653909,44.178633,28.653909,44.178633",uuuu,85633745,,c02eb3c3473c98465f171ccae6bd8a20,,8df8809b60262d20156c75faa20bc118,44.178633,28.653909,85901655,uuuu,RO,RO,1531932536,44.178633,28.653909,101751965,Alibei-Ceair,101751965,859/016/55/85901655.geojson,neighbourhood,85687633,mz,,,RO
"26.15727591527525,44.41789584345004,26.24809814455011,44.4653493008001",uuuu,85633745,,2096a2e4bfc0d08009b05e0cd1db6d3c,,b7a067cca43393b8057fc4c91dfff082,44.439091,26.205228,85901671,uuuu,RO,RO,1527638901,44.438455,26.183031,0,Balta Albă,-1,859/016/71/85901671.geojson,neighbourhood,85687595,quattroshapes,,,RO
"25.590293,45.642593,25.590293,45.642593",uuuu,85633745,,7d3d7e40799d9ab622f8453828835b28,,3280c96485b6da7b43ee21787f0e9b12,45.642593,25.590293,85901659,uuuu,RO,RO,1531932536,45.642593,25.590293,101751991,Astra,101751991,859/016/59/85901659.geojson,neighbourhood,85687683,mz,,,RO
"26.08563391425582,44.38280689777353,26.12139714763669,44.42201131420002",uuuu,85633745,,0ba5d78f36d41a78e25de80da34eb13e,,2d1acff5730c8be849cd4b8f65a74298,44.403602,26.102468,85901681,uuuu,RO,RO,1527269185,44.408943,26.103181,101751949,Belu,101751949,859/016/81/85901681.geojson,neighbourhood,85687595,quattroshapes,,,RO
"25.588234,45.647664,25.588234,45.647664",uuuu,85633745,,ed6c1b859af67bf04829ab276d4eb4e5,,8837552ff26eeac4c77f866980ceeb97,45.647664,25.588234,85901663,uuuu,RO,RO,1531932537,45.647664,25.588234,101751991,Atias,101751991,859/016/63/85901663.geojson,neighbourhood,85687683,mz,,,RO
"26.08550127073067,44.34331428860021,26.1382348632502,44.3907027735486",uuuu,85633745,,986a7fffd245cb64536680858fc9b58b,,1f370ab509feff0a0b91e1b08343718e,44.365870,26.115454,85901657,uuuu,RO,RO,1497313016,44.375832,26.134339,0,Aparatorii Patriei,-1,859/016/57/85901657.geojson,neighbourhood,85687595,quattroshapes,,,RO
"24.794177,46.220451,24.794177,46.220451",uuuu,85633745,,4f6c37229710e0ecda5f08cd196dd5c3,,5b7a6dda0b082f068dcd481fac496ff0,46.220451,24.794177,85901683,uuuu,RO,RO,1531932541,46.220451,24.794177,101834093,Bendorf,101834093,859/016/83/85901683.geojson,neighbourhood,85687719,mz,,,RO
"26.637101,44.093143,26.637101,44.093143",uuuu,85633745,,07dbd60d5bf34109a44ffca2bc93b069,,c1804d7453fd69b1de7829986e7a2858,44.093143,26.637101,85901665,uuuu,RO,RO,1531932537,44.093143,26.637101,101795071,Atîrnați,101795071,859/016/65/85901665.geojson,neighbourhood,85687615,mz,,,RO
"26.807333,45.143957,26.807333,45.143957",uuuu,85633745,,43ee4a0fa171166260ec0654337d0d7d,,2bbe9f5edd1adc262cd0d3e2a4121c91,45.143957,26.807333,85901673,uuuu,RO,RO,1531932539,45.143957,26.807333,101751981,Balta Plopului,101751981,859/016/73/85901673.geojson,neighbourhood,85687667,mz,,,RO
"24.801741,46.225891,24.801741,46.225891",uuuu,85633745,,1fb214b4232512a8393772c5c93ad779,,9787f39d0139dc2cf6e2838a7ded1564,46.225891,24.801741,85901667,uuuu,RO,RO,1531932538,46.225891,24.801741,101834093,Aurel Vlaicu,101834093,859/016/67/85901667.geojson,neighbourhood,85687719,mz,,,RO
"26.12548828119998,44.36687662590016,26.16020751955006,44.39061697880005",uuuu,85633745,,ccba4d4f67df58f64b0a343f08d12783,,784111fa442ed7f0909134270e2244b1,44.379786,26.143834,85901685,uuuu,RO,RO,1527269185,44.383358,26.137723,101751949,Barzești,101751949,859/016/85/85901685.geojson,neighbourhood,85687595,quattroshapes,,,RO
"28.04027,45.435773,28.04027,45.435773",uuuu,85633745,,572e9c820ff4b6440f429480c4f1003b,,b99bf9fac34db498dead56c12d040c20,45.435773,28.040270,85901675,uuuu,RO,RO,1531932540,45.435773,28.040270,101752007,Baston,101752007,859/016/75/85901675.geojson,neighbourhood,85687709,mz,,,RO
"26.01728,44.939551,26.01728,44.939551",uuuu,85633745,,c7c900d31e78aa703a5f6f77a9d9e3cf,,2184f6cb7b812a24955df521fc7165ae,44.939551,26.017280,85901833,uuuu,RO,RO,1531932576,44.939551,26.017280,101751977,Moțoi,101751977,859/018/33/85901833.geojson,neighbourhood,85687661,mz,,,RO
"23.110878,46.300423,23.110878,46.300423",uuuu,85633745,,e81179aa16575b795af02419b3e8c7cc,,bdeb2a459022d9ab739a762664c2ee43,46.300423,23.110878,85901653,uuuu,RO,RO,1531932535,46.300423,23.110878,-1,Abrud-Sat,-1,859/016/53/85901653.geojson,neighbourhood,85687697,mz,,,RO
"26.750408,47.249112,26.750408,47.249112",uuuu,85633745,,e0dfe7e7692353947f49a1c05da66949,,cab699cdba3fc11e404240d8d5611654,47.249112,26.750408,85901687,uuuu,RO,RO,1531932542,47.249112,26.750408,101833793,Blăgești,101833793,859/016/87/85901687.geojson,neighbourhood,85687769,mz,,,RO
"25.294363,46.305297,25.294363,46.305297",uuuu,85633745,,d9d7ada2c26f1e10419c02bf3ea5eb5b,,ddf46d24a240ec767ff30ca464164736,46.305297,25.294363,85901677,uuuu,RO,RO,1531932541,46.305297,25.294363,101788755,Beclean,101788755,859/016/77/85901677.geojson,neighbourhood,85687733,mz,,,RO
"23.919411,46.178088,23.919411,46.178088",uuuu,85633745,,be9f050f1f099ff7011cb7f81b4bfa84,,16f4d48253db628cd710b079bbb432dc,46.178088,23.919411,85901689,uuuu,RO,RO,1531932543,46.178088,23.919411,101834063,Blaj-Sat,101834063,859/016/89/85901689.geojson,neighbourhood,85687697,mz,,,RO
"21.227707,45.750544,21.227707,45.750544",uuuu,85633745,,6b13dbb5b8ef24481076d2a1e7f0319f,,2a3c725c8c593ae614ebbdcd97ad5b38,45.750544,21.227707,85901693,uuuu,RO,RO,1531932544,45.750544,21.227707,101751973,Bogda,101751973,859/016/93/85901693.geojson,neighbourhood,85687655,mz,,,RO
"23.3686,45.414919,23.3686,45.414919",uuuu,85633745,,81584ba6256ea2043337b09302e1f665,,c0944c41c4f94607f71789c68666f698,45.414919,23.368600,85901695,uuuu,RO,RO,1531932545,45.414919,23.368600,101751987,Boli,101751987,859/016/95/85901695.geojson,neighbourhood,85687671,mz,,,RO
"26.11999511717914,44.40435390927549,26.15948413665478,44.43915408379196",uuuu,85633745,,2911b55734773c6ea34f2f0cbf87f6de,,b4f39d461e4dbfedfdc421b68da8c989,44.423180,26.140683,85901765,uuuu,RO,RO,1536864511,44.411035,26.142592,101751949,Dudesti,101751949,859/017/65/85901765.geojson,neighbourhood,85687595,quattroshapes,,,RO
"25.57215,47.52956,25.57215,47.52956",uuuu,85633745,,8853e6b8db2900df2c13f2a1a2ad35a5,,f2c1633bced1b0b9306b77f318dc517c,47.529560,25.572150,85901691,uuuu,RO,RO,1531932543,47.529560,25.572150,101833853,Bodea,101833853,859/016/91/85901691.geojson,neighbourhood,85687773,mz,,,RO
"21.306021,46.194046,21.306021,46.194046",uuuu,85633745,,3b4976aa9a690109190c235a60cc3fe3,,3a0ddac18e9cdb31461c91690077abec,46.194046,21.306021,85901701,uuuu,RO,RO,1531932546,46.194046,21.306021,101751999,Bujac,101751999,859/017/01/85901701.geojson,neighbourhood,85687691,mz,,,RO
"25.357201,47.348386,25.357201,47.348386",uuuu,85633745,,627158823ead41f9112049844807379d,,c9eca6494fd21b40ea7cb5a44d5d21b9,47.348386,25.357201,85901709,uuuu,RO,RO,1531932549,47.348386,25.357201,101785163,Călinești,101785163,859/017/09/85901709.geojson,neighbourhood,85687773,mz,,,RO
"24.495232,47.132986,24.495232,47.132986",uuuu,85633745,,315292fc61e9b182268d2815716edcbf,,c5efeced83c31e5527baaa6168dec4c7,47.132986,24.495232,85901951,uuuu,RO,RO,1531932607,47.132986,24.495232,101752035,Viișoara,101752035,859/019/51/85901951.geojson,neighbourhood,85687753,mz,,,RO
"24.696477,46.772471,24.696477,46.772471",uuuu,85633745,,2192e1b65a09b64cc84bd70bc1d6f42e,,3ee6efc6419ba4f05fa6435808e2ec86,46.772471,24.696477,85901801,uuuu,RO,RO,1531932569,46.772471,24.696477,101833451,Ierbuș,101833451,859/018/01/85901801.geojson,neighbourhood,85687719,mz,,,RO
"25.636741,45.626606,25.636741,45.626606",uuuu,85633745,,b539145b8c64a5df1bcff90ac4709f2b,,bd3e913454eeca553d8711757245f6fe,45.626606,25.636741,85901839,uuuu,RO,RO,1531932578,45.626606,25.636741,101751991,Noua,101751991,859/018/39/85901839.geojson,neighbourhood,85687683,mz,,,RO
"23.800581,44.314214,23.800581,44.314214",uuuu,85633745,,370c6db4b3da41519572176c4fb9e84b,,b477094aea5d85bcd91deba43e5d17b0,44.314214,23.800581,85901711,uuuu,RO,RO,1531932550,44.314214,23.800581,101751943,Canalu,101751943,859/017/11/85901711.geojson,neighbourhood,85687581,mz,,,RO
"26.915235,46.543824,26.915235,46.543824",uuuu,85633745,,fb3bd2666f2a201f80c4e6c0f132ed60,,23f5adce1501114e062adba68185210a,46.543824,26.915235,85901803,uuuu,RO,RO,1531932569,46.543824,26.915235,101752009,Izvoarele de Sus,101752009,859/018/03/85901803.geojson,neighbourhood,85687715,mz,,,RO
"23.800426,46.552231,23.800426,46.552231",uuuu,85633745,,770df2af3539a9bc0b155c5ac5bacbcb,,a6208cf531ebad2fb133d9d8b66f0a3e,46.552231,23.800426,85901843,uuuu,RO,RO,1531932579,46.552231,23.800426,101788671,Oprișani,101788671,859/018/43/85901843.geojson,neighbourhood,85687727,mz,,,RO
"25.594588,47.511939,25.594588,47.511939",uuuu,85633745,,3846c9bb9a3c6fdcb4fa68815a20d2bd,,71d3eaf5241e81bba590bca9c67c2214,47.511939,25.594588,85901807,uuuu,RO,RO,1531932570,47.511939,25.594588,101833853,Izvoru Alb,101833853,859/018/07/85901807.geojson,neighbourhood,85687773,mz,,,RO
"28.023376,45.411949,28.023376,45.411949",uuuu,85633745,,e1a39393e48bae4816f74c47f3e033ac,,b95d2fe39daa96391c83b4ab3c7def46,45.411949,28.023376,85901845,uuuu,RO,RO,1531932579,45.411949,28.023376,101752007,Ostrovu Azaclău,101752007,859/018/45/85901845.geojson,neighbourhood,85687709,mz,,,RO
"25.591332,46.723215,25.591332,46.723215",uuuu,85633745,,a0e4515eeede050f53fae1015da04f8e,,4df78963b270d81414dd5784a175dfe3,46.723215,25.591332,85901809,uuuu,RO,RO,1531932571,46.723215,25.591332,101787333,Lacu Roșu,101787333,859/018/09/85901809.geojson,neighbourhood,85687733,mz,,,RO
"26.08154296878206,44.41612599522536,26.12085912107301,44.44823281106547",uuuu,85633745,,7772abc941a2038861e3e5a4acdc061c,,cc49595574efdef6daea6fed5f1ac715,44.433445,26.102607,85901767,uuuu,RO,RO,1497309709,44.443482,26.096264,101751949,Eliade Între Vii,101751949,859/017/67/85901767.geojson,neighbourhood,85687595,quattroshapes,,,RO
"27.720467,46.627364,27.720467,46.627364",uuuu,85633745,,9ee0e2754344018212a79260d146545a,,6d2e246b303cf3f026141c1e58e1fd20,46.627364,27.720467,85901847,uuuu,RO,RO,1531932580,46.627364,27.720467,101752027,Paiu,101752027,859/018/47/85901847.geojson,neighbourhood,85687743,mz,,,RO
"23.771643,46.57973,23.771643,46.57973",uuuu,85633745,,e6ea687eb55fb0cd705bbec6720c3010,,61e5302d924de27c98089d32bf506266,46.579730,23.771643,85901811,uuuu,RO,RO,1531932571,46.579730,23.771643,101752021,Lobodaș,101752021,859/018/11/85901811.geojson,neighbourhood,85687727,mz,,,RO
"28.273655,44.265332,28.273655,44.265332",uuuu,85633745,,984c081a04330a8bbeece7a81a79f755,,0ee0f95c0a98d80db8006a61072d688d,44.265332,28.273655,85901771,uuuu,RO,RO,1531932562,44.265332,28.273655,101793971,Ende-Carachioi,101793971,859/017/71/85901771.geojson,neighbourhood,85687633,mz,,,RO
"28.597932,44.174803,28.597932,44.174803",uuuu,85633745,,c418eea2c237799bcc841a6dfb5a76db,,50b1e4db211ce6a8d71112349a1c8af4,44.174803,28.597932,85901849,uuuu,RO,RO,1531932581,44.174803,28.597932,101751965,Palas,101751965,859/018/49/85901849.geojson,neighbourhood,85687633,mz,,,RO
"26.3974,47.951305,26.3974,47.951305",uuuu,85633745,,2281dfee8c54f3a35d0871874eb3a50c,,ecf73caa29c575e56f85b1ba7ffc8773,47.951305,26.397400,85901813,uuuu,RO,RO,1531932572,47.951305,26.397400,101832659,Loturi Enescu,101832659,859/018/13/85901813.geojson,neighbourhood,85687777,mz,,,RO
"27.854854,44.381224,27.854854,44.381224",uuuu,85633745,,74c43973146218172e31c1fd3f815e18,,4d0b355d5b3de5df397e79ab31a8aa16,44.381224,27.854854,85901773,uuuu,RO,RO,1531932563,44.381224,27.854854,101835677,Feteștii Noi,101835677,859/017/73/85901773.geojson,neighbourhood,85687621,mz,,,RO
"24.359025,44.430535,24.359025,44.430535",uuuu,85633745,,eddb9dd8962a7ee1abe21fe443ea4ef4,,bf0421dc036bce8e390e40d0f234661b,44.430535,24.359025,85901851,uuuu,RO,RO,1531932581,44.430535,24.359025,101751953,Pîrliți,101751953,859/018/51/85901851.geojson,neighbourhood,85687607,mz,,,RO
"26.656828,47.743522,26.656828,47.743522",uuuu,85633745,,b1ca92f7176ae6cb1b9a9131c86d925f,,59da43c432b6bb2729da77a356bc12d5,47.743522,26.656828,85901815,uuuu,RO,RO,1531932573,47.743522,26.656828,101752045,Luizoaia,101752045,859/018/15/85901815.geojson,neighbourhood,85687777,mz,,,RO
"27.962626,45.30306,27.962626,45.30306",uuuu,85633745,,a8e206d023f2c6e8bf17d5390f176273,,9b11ef06a055720d3675f49429c1639d,45.303060,27.962626,85901853,uuuu,RO,RO,1531932582,45.303060,27.962626,101751979,Piscu,101751979,859/018/53/85901853.geojson,neighbourhood,85687663,mz,,,RO
"26.04142083148997,44.39042948570007,26.05718858027012,44.40653128902211",uuuu,85633745,,b02c569d4cb0cd304cb9cdf2b1c8e432,,00244cfa36f0bea499e1ad2b26899764,44.397938,26.049330,85901817,uuuu,RO,RO,1527269180,44.400429,26.051331,101751949,Lupeasca,101751949,859/018/17/85901817.geojson,neighbourhood,85687595,quattroshapes,,,RO
"26.06402706371489,44.44162421760002,26.11527931464474,44.47103123159992",uuuu,85633745,,3582d741518fb78231a9c27df77dfd4d,,bdef04bb09cde86625a18fbb9b9d93bf,44.457639,26.089280,85901775,uuuu,RO,RO,1527638942,44.466256,26.105413,101751949,Floreasca,101751949,859/017/75/85901775.geojson,neighbourhood,85687595,quattroshapes,,,RO
"25.730172,45.136051,25.730172,45.136051",uuuu,85633745,,2792101664953ba5e831a904379226aa,,392e7a7b42b12c156cd6d697db7006a1,45.136051,25.730172,85901855,uuuu,RO,RO,1531932583,45.136051,25.730172,101834623,Pițigaia,101834623,859/018/55/85901855.geojson,neighbourhood,85687661,mz,,,RO
"26.368737,46.931886,26.368737,46.931886",uuuu,85633745,,4aa1083ab244176165e1de0cbb37551c,,92c3714838c3dad8746b6a8ca51ac326,46.931886,26.368737,85901819,uuuu,RO,RO,1531932573,46.931886,26.368737,101752033,Mărăței,101752033,859/018/19/85901819.geojson,neighbourhood,85687747,mz,,,RO
"21.215928,45.726473,21.215928,45.726473",uuuu,85633745,,76ab6ef379a6ab8665f0516f57300dbb,,bec76136e7ed85a25932c288b1134d6c,45.726473,21.215928,85901777,uuuu,RO,RO,1531932563,45.726473,21.215928,101751973,Fratelia,101751973,859/017/77/85901777.geojson,neighbourhood,85687655,mz,,,RO
"26.047829,44.958091,26.047829,44.958091",uuuu,85633745,,1fe6e68b9ab1f42e9d696516f3a7f622,,192eaf751f8e10457638de9ab7c9d348,44.958091,26.047829,85901857,uuuu,RO,RO,1531932583,44.958091,26.047829,101835933,Ploeștiori Eforie,101835933,859/018/57/85901857.geojson,neighbourhood,85687661,mz,,,RO
"24.386212,45.113428,24.386212,45.113428",uuuu,85633745,,e0397c1673aa6bbc8748a61505ae5001,,e5bae5e141569cec8008dbcc8f869bac,45.113428,24.386212,85901719,uuuu,RO,RO,1531932551,45.113428,24.386212,101753949,Cetățuia,101753949,859/017/19/85901719.geojson,neighbourhood,85687643,mz,,,RO
"23.829962,44.314584,23.829962,44.314584",uuuu,85633745,,8bd8c2dd13825de7393e1c13704da007,,5f22369cb28c19d74e997b3aefe342ab,44.314584,23.829962,85901785,uuuu,RO,RO,1531932565,44.314584,23.829962,101751943,Gherceștii Noi,101751943,859/017/85/85901785.geojson,neighbourhood,85687581,mz,,,RO
"24.356834,45.104444,24.356834,45.104444",uuuu,85633745,,288201c5609e2531005076cbd3bad263,,96cf4fc71c93f11a8d7aa3da1e8db028,45.104444,24.356834,85901863,uuuu,RO,RO,1531932584,45.104444,24.356834,101751969,Poenari,101751969,859/018/63/85901863.geojson,neighbourhood,85687643,mz,,,RO
"25.45864,44.928977,25.45864,44.928977",uuuu,85633745,,c57a72c5a84f316bf7b97f42519ec979,,0b2ff745deea7b0fe14a3655437b26e4,44.928977,25.458640,85901825,uuuu,RO,RO,1531932574,44.928977,25.458640,101751967,Matei Voevod,101751967,859/018/25/85901825.geojson,neighbourhood,85687637,mz,,,RO
"21.221185,45.755928,21.221185,45.755928",uuuu,85633745,,b98e429867af14ea9af8287dfc0de50a,,4f56458a2b187868b86fa584bb7190ae,45.755928,21.221185,85901721,uuuu,RO,RO,1531932552,45.755928,21.221185,101751973,Ciarda Roșie,101751973,859/017/21/85901721.geojson,neighbourhood,85687655,mz,,,RO
"23.884583,46.545532,23.884583,46.545532",uuuu,85633745,,23301e9c5d460316c00c604c9d8c5268,,4c4285d4b2ed98ef5aabd5ab8f183137,46.545532,23.884583,85901789,uuuu,RO,RO,1531932565,46.545532,23.884583,101788665,Ghiriș-Sîncraiu,101788665,859/017/89/85901789.geojson,neighbourhood,85687727,mz,,,RO
"26.1350723908061,44.38792838087592,26.16020751955006,44.40882071900451",uuuu,85633745,,6a9e035aeebc36be6a8b2b7fe82c83db,,4b89a53c1c2bc8849a29309ff92917ed,44.396658,26.147630,85901865,uuuu,RO,RO,1497308706,44.397610,26.144445,101751949,Popești-Romîni,101751949,859/018/65/85901865.geojson,neighbourhood,85687595,quattroshapes,,,RO
"26.391907,46.914627,26.391907,46.914627",uuuu,85633745,,5d3d8ebedda85fdb016f858459aad32c,,1667012b8b92e4c841012b6a2a6edcc2,46.914627,26.391907,85901723,uuuu,RO,RO,1531932552,46.914627,26.391907,101752033,Cindia,101752033,859/017/23/85901723.geojson,neighbourhood,85687747,mz,,,RO
"21.253407,45.748933,21.253407,45.748933",uuuu,85633745,,ef83a41f1d3520c09643d12f7b34ec37,,031c26e57f26788b7807e8223a5b1fdb,45.748933,21.253407,85901791,uuuu,RO,RO,1531932566,45.748933,21.253407,101751973,Ghiroda Nouă,101751973,859/017/91/85901791.geojson,neighbourhood,85687655,mz,,,RO
"21.350676,46.173287,21.350676,46.173287",uuuu,85633745,,453d1790ff61d91c3f5ab2dca1af67df,,2ddb7a927c86014d28f88c7b28065926,46.173287,21.350676,85901827,uuuu,RO,RO,1531932575,46.173287,21.350676,101751999,Micălaca,101751999,859/018/27/85901827.geojson,neighbourhood,85687691,mz,,,RO
"24.372207,45.104131,24.372207,45.104131",uuuu,85633745,,8318ee98ac279c07c1f8f3fc4c0af6d6,,76113b647e66914935672018dda8ad08,45.104131,24.372207,85901867,uuuu,RO,RO,1531932585,45.104131,24.372207,101751969,Priba,101751969,859/018/67/85901867.geojson,neighbourhood,85687643,mz,,,RO
"24.874901,44.856725,24.874901,44.856725",uuuu,85633745,,e194751794e52997df35834f610530a3,,b56c02568c7aa84aea832472929cdfeb,44.856725,24.874901,85901793,uuuu,RO,RO,1531932567,44.856725,24.874901,101751971,Gropeni,101751971,859/017/93/85901793.geojson,neighbourhood,85687645,mz,,,RO
"26.00049255058661,44.44162415177534,26.04034423828534,44.46902334803811",uuuu,85633745,,0213c2def509c769ad56bc0419d04cd4,,76ce6c08d2f390c9133a6883aeb6ead1,44.453944,26.021892,85901725,uuuu,RO,RO,1497309218,44.456070,26.030799,0,Ciurel,-1,859/017/25/85901725.geojson,neighbourhood,85687595,quattroshapes,,,RO
"24.454138,47.719002,24.454138,47.719002",uuuu,85633745,,e5c03b55460df4ff5a4ef1b5459528c1,,56679c79d62491eb197b25f2d5052715,47.719002,24.454138,85901869,uuuu,RO,RO,1531932585,47.719002,24.454138,-1,Rădeasa,-1,859/018/69/85901869.geojson,neighbourhood,85687761,mz,,,RO
"22.892731,45.75298,22.892731,45.75298",uuuu,85633745,,f8665cede933c48a37a12a1bcc3d161f,,1acf3425ef830da6bfadb546e6eb8d7b,45.752980,22.892731,85901795,uuuu,RO,RO,1531932567,45.752980,22.892731,101751985,Groși,101751985,859/017/95/85901795.geojson,neighbourhood,85687671,mz,,,RO
"26.250533,47.642149,26.250533,47.642149",uuuu,85633745,,a6ba67b12417b743bb8edfbfb14a853d,,0a7c4d3c1bb80b6c07c3302e7deb47fc,47.642149,26.250533,85901703,uuuu,RO,RO,1531932547,47.642149,26.250533,101752043,Bulai-Bosanci,101752043,859/017/03/85901703.geojson,neighbourhood,85687773,mz,,,RO
"25.9699194336003,44.42181855575028,26.04034423828745,44.45338847120037",uuuu,85633745,,3dde17509a9aa1c3b724d1dcf9a545aa,,9a9aac7f5d79816f9d8dda69e043b4cb,44.437052,26.000445,85901829,uuuu,RO,RO,1527638887,44.438506,26.011891,101751949,Militari,101751949,859/018/29/85901829.geojson,neighbourhood,85687595,quattroshapes,,,RO
"25.5135,45.354778,25.5135,45.354778",uuuu,85633745,,6c25297562e157ef25f9f62d53f80f61,,21624a98226b5d5f879d0545476a963d,45.354778,25.513500,85901727,uuuu,RO,RO,1531932553,45.354778,25.513500,-1,Coada Izvorului,-1,859/017/27/85901727.geojson,neighbourhood,85687661,mz,,,RO
"21.690456,46.094767,21.690456,46.094767",uuuu,85633745,,4ac925d380c51f77d61df22c0dcb36c9,,e087b0d850e00591ba2ac2fcae0f104b,46.094767,21.690456,85901871,uuuu,RO,RO,1531932586,46.094767,21.690456,101834871,Radna,101834871,859/018/71/85901871.geojson,neighbourhood,85687691,mz,,,RO
"27.304077,44.209116,27.304077,44.209116",uuuu,85633745,,c502ea911ce50a744c00cf23ebd05bb9,,f8f926013cca6d3d194b6f0750c66156,44.209116,27.304077,85901831,uuuu,RO,RO,1531932575,44.209116,27.304077,101751955,Mircea Vodă,101751955,859/018/31/85901831.geojson,neighbourhood,85687615,mz,,,RO
"25.359192,47.363014,25.359192,47.363014",uuuu,85633745,,780f97800cd63c7f0c87191349257297,,1adeaa0c6ce1bb030220bf65b8c8ccd0,47.363014,25.359192,85901729,uuuu,RO,RO,1531932554,47.363014,25.359192,-1,Colbu,-1,859/017/29/85901729.geojson,neighbourhood,85687773,mz,,,RO
"24.15611,45.799775,24.15611,45.799775",uuuu,85633745,,bc2ae778dcd5ee46ae6aba3d2aa58bf1,,765e7fa3232f5614410c268073d26ca5,45.799775,24.156110,85901797,uuuu,RO,RO,1531932568,45.799775,24.156110,101751997,Gușterița,101751997,859/017/97/85901797.geojson,neighbourhood,85687687,mz,,,RO
"27.951501,45.252349,27.951501,45.252349",uuuu,85633745,,be54bef13f837200c0c06dda88d498ef,,805f6808a9a23cdfb6b77d4fc12c87e9,45.252349,27.951501,85901873,uuuu,RO,RO,1531932587,45.252349,27.951501,101751979,Radu Negru,101751979,859/018/73/85901873.geojson,neighbourhood,85687663,mz,,,RO
"21.933088,47.057906,21.933088,47.057906",uuuu,85633745,,0d0329cd45ad5322eb75270fd01da502,,32334684cb74b19ed574245c5402b6a9,47.057906,21.933088,85901945,uuuu,RO,RO,1531932606,47.057906,21.933088,101752025,Victoria,101752025,859/019/45/85901945.geojson,neighbourhood,85687737,mz,,,RO
"21.941711,47.052005,21.941711,47.052005",uuuu,85633745,,a1beaea2156d0aa5f5d5228608609230,,3016a6eb38da97b325ca0757e4c16d69,47.052005,21.941711,85901943,uuuu,RO,RO,1531932605,47.052005,21.941711,101752025,Velența,101752025,859/019/43/85901943.geojson,neighbourhood,85687737,mz,,,RO
"26.14746093750011,44.45927003855014,26.17119384765022,44.48887056790018",uuuu,85633745,,d22673ee3483d634ac194f963c23dfdc,,0934060826e0c02cb0ad773a5aef052e,44.472835,26.159983,85901731,uuuu,RO,RO,1527638942,44.463587,26.141706,101751949,Colentina,101751949,859/017/31/85901731.geojson,neighbourhood,85687595,quattroshapes,,,RO
"24.700287,46.782852,24.700287,46.782852",uuuu,85633745,,3d02877bafbc81722f3c90bc11c1e5cf,,35d3ac4031e75bd4a867b2b3a4867be2,46.782852,24.700287,85901875,uuuu,RO,RO,1531932587,46.782852,24.700287,101833451,Reghin-Sat,101833451,859/018/75/85901875.geojson,neighbourhood,85687719,mz,,,RO
"26.271938,47.665233,26.271938,47.665233",uuuu,85633745,,4968a8c744a1e524bd110148b26fa0b5,,82eee22e1b998a76d726c78b80ac68e5,47.665233,26.271938,85901705,uuuu,RO,RO,1531932548,47.665233,26.271938,101752043,Burdujeni-Sat,101752043,859/017/05/85901705.geojson,neighbourhood,85687773,mz,,,RO
"26.17218017580012,44.44558297365118,26.19415283202511,44.4653493008001",uuuu,85633745,,0d079858cd803669a87558dd5d4fc36c,,f990d618cb6cc71f9162db5158895281,44.455328,26.182903,85901821,uuuu,RO,RO,1497308705,44.451674,26.178703,101758405,Mărcuța,101758405,859/018/21/85901821.geojson,neighbourhood,85687611,quattroshapes,,,RO
"26.300964,47.458841,26.300964,47.458841",uuuu,85633745,,aca4113016a5471a3fe4806c140ed55c,,5e9fe9fc91e2ccb0afc1730503669aa8,47.458841,26.300964,85901739,uuuu,RO,RO,1531932555,47.458841,26.300964,101783929,Cotu Iazului,101783929,859/017/39/85901739.geojson,neighbourhood,85687773,mz,,,RO
"27.666737,46.229305,27.666737,46.229305",uuuu,85633745,,26e29f9c19adb5bedafaf01b55381c55,,419d221b00d19db29ac5165d9944a89d,46.229305,27.666737,85901741,uuuu,RO,RO,1531932556,46.229305,27.666737,101752031,Cotu Negru,101752031,859/017/41/85901741.geojson,neighbourhood,85687743,mz,,,RO
"25.9863989258003,44.45338847120037,26.02937496974295,44.48884147338477",uuuu,85633745,,6f7189354fc66556a86a6f3d4a68d837,,074ef34eee0f142d97898486b75905dd,44.470243,26.007142,85901885,uuuu,RO,RO,1527269181,44.487519,26.021964,101751949,16 Februarie,101751949,859/018/85/85901885.geojson,neighbourhood,85687595,quattroshapes,,,RO
"26.05791329829714,44.46711113555021,26.14372802735005,44.53588466750007",uuuu,85633745,,0dd1c4216a172bf573ccf6525175632e,,1e9c556705ff4920039e98be678264c4,44.497480,26.101080,85901799,uuuu,RO,RO,1527638942,44.483466,26.089040,0,Herastrau,-1,859/017/99/85901799.geojson,neighbourhood,85687595,quattroshapes,,,RO
"25.044022,45.282858,25.044022,45.282858",uuuu,85633745,,994825fec8fe18a00b1adde35f1637e1,,e9ac5cb584ae4f39197d07df59bc2496,45.282858,25.044022,85901887,uuuu,RO,RO,1531932590,45.282858,25.044022,101834549,Schei,101834549,859/018/87/85901887.geojson,neighbourhood,85687645,mz,,,RO
"23.806623,46.575855,23.806623,46.575855",uuuu,85633745,,2256a9e802d887f33b540f8c0a3778da,,d04cf72bc2b55de182702ece74f23a2f,46.575855,23.806623,85901743,uuuu,RO,RO,1531932556,46.575855,23.806623,101752021,Crăciunești,101752021,859/017/43/85901743.geojson,neighbourhood,85687727,mz,,,RO
"21.314007,46.152097,21.314007,46.152097",uuuu,85633745,,7e1ba088ac617d4a8d8fa46da38bbd6a,,b6970fe0a6ed36ac4f497ef9cf4688d3,46.152097,21.314007,85901835,uuuu,RO,RO,1531932577,46.152097,21.314007,101751999,Mureșel,101751999,859/018/35/85901835.geojson,neighbourhood,85687691,mz,,,RO
"22.808425,46.949931,22.808425,46.949931",uuuu,85633745,,67763c7408e3c9ffba3f1333712611c5,,ef1a77724b32241b72d47cfb5bded6f5,46.949931,22.808425,85901707,uuuu,RO,RO,1531932548,46.949931,22.808425,-1,Calea Lată,-1,859/017/07/85901707.geojson,neighbourhood,85687727,mz,,,RO
"22.655189,44.630901,22.655189,44.630901",uuuu,85633745,,fdca455b9c6deef366f12cbb2be2d063,,b35ac46cb8b4cc10248ed38962cb0bf8,44.630901,22.655189,85901889,uuuu,RO,RO,1531932591,44.630901,22.655189,101751951,Schela Cladovei,101751951,859/018/89/85901889.geojson,neighbourhood,85687599,mz,,,RO
"26.952209,46.549416,26.952209,46.549416",uuuu,85633745,,abd9d9480de75925026ecd9ae2f8d475,,45bd1c9cae0acfb7d52e87d8d27fc50c,46.549416,26.952209,85901745,uuuu,RO,RO,1531932557,46.549416,26.952209,-1,Cremenea,-1,859/017/45/85901745.geojson,neighbourhood,85687715,mz,,,RO
"24.972493,45.845471,24.972493,45.845471",uuuu,85633745,,d4c4033f6124e6592b3d8212bc940adb,,9cd18f6d9799adeb5457364858393d28,45.845471,24.972493,85901781,uuuu,RO,RO,1531932564,45.845471,24.972493,101790933,Galați,101790933,859/017/81/85901781.geojson,neighbourhood,85687683,mz,,,RO
"26.06951996935891,44.43625019317518,26.08154296879076,44.44307616952325",uuuu,85633745,,d90a8bd9d8e677fcde4402d21e681d0d,,276423d0814daa73701825ddf2719b9e,44.439863,26.075477,85901713,uuuu,RO,RO,1497316811,44.440606,26.073447,101751949,Cărămidari,101751949,859/017/13/85901713.geojson,neighbourhood,85687595,quattroshapes,,,RO
"26.03656105543115,44.43181850637525,26.07055664061681,44.46907089560035",uuuu,85633745,,7c8bc8a30c5e886e25b86d7272118dd8,,cf1ef0bd503106370e1e35bdb8abd91f,44.450502,26.052472,85901747,uuuu,RO,RO,1527269212,44.449332,26.053598,101751949,Crîngași,101751949,859/017/47/85901747.geojson,neighbourhood,85687595,quattroshapes,,,RO
"26.07428955080019,44.35116945405024,26.10626220702522,44.39061697880005",uuuu,85633745,,a425447306b1f1ad1e69fa91fbab74b4,,2706a1529a020eaa18def34100e8076f,44.371137,26.090668,85901891,uuuu,RO,RO,1497309828,44.389405,26.092753,101751949,Şerban Vodă,101751949,859/018/91/85901891.geojson,neighbourhood,85687595,quattroshapes,,,RO
"26.1127787773151,44.43609382519635,26.15020751952511,44.48495101490006",uuuu,85633745,,d34724d751f2c1c1ec84aed4a7153507,,702f47b2b9ed8488c5b490128226e1d5,44.460696,26.132649,85901861,uuuu,RO,RO,1527638887,44.464582,26.132166,101751949,Plumbuita,101751949,859/018/61/85901861.geojson,neighbourhood,85687595,quattroshapes,,,RO
"22.898403,47.769714,22.898403,47.769714",uuuu,85633745,,6021283b8e324e0b6d1385e445f44574,,70bb7fb81b31f6c0414951cb4be010d8,47.769714,22.898403,85901749,uuuu,RO,RO,1531932558,47.769714,22.898403,-1,Cucu-Mărtinești,-1,859/017/49/85901749.geojson,neighbourhood,85687757,mz,,,RO
"26.922697,46.591474,26.922697,46.591474",uuuu,85633745,,b2d2f059429fbaf400933408fc7e1b58,,ef7728646d85317674772888a168bd30,46.591474,26.922697,85901893,uuuu,RO,RO,1531932591,46.591474,26.922697,-1,Şerbănești,-1,859/018/93/85901893.geojson,neighbourhood,85687715,mz,,,RO
"26.834914,46.553196,26.834914,46.553196",uuuu,85633745,,44adfcbf013dfde2cc2b636d1ca9eb89,,8e9d4fb30027f04be5e8a1c1914eafd4,46.553196,26.834914,85901753,uuuu,RO,RO,1531932559,46.553196,26.834914,101758429,Cujbic,101758429,859/017/53/85901753.geojson,neighbourhood,85687715,mz,,,RO
"25.543803,45.355655,25.543803,45.355655",uuuu,85633745,,0debbde4382a28b9ab9423971e537476,,714008174c56bc35c841a90c6db62e91,45.355655,25.543803,85901897,uuuu,RO,RO,1531932592,45.355655,25.543803,101791833,Sinaia Izvor,101791833,859/018/97/85901897.geojson,neighbourhood,85687661,mz,,,RO
"26.08154296671802,44.42397289452406,26.12548828122095,44.4524084677753",uuuu,85633745,,2824706b92c7c43913145ba52d75100a,,1a739033f6b4f66f637821126340faf9,44.439230,26.106902,85901779,uuuu,RO,RO,1497313028,44.429234,26.094787,101751949,Fundu Crîngași,101751949,859/017/79/85901779.geojson,neighbourhood,85687595,quattroshapes,,,RO
"25.543136,45.360008,25.543136,45.360008",uuuu,85633745,,ca86e8c98092ab12be6e6cadae1e87bb,,630de51f3c3e26f3061f6783cd6bd04a,45.360008,25.543136,85901755,uuuu,RO,RO,1531932559,45.360008,25.543136,101791833,Cumpătu,101791833,859/017/55/85901755.geojson,neighbourhood,85687661,mz,,,RO
"23.37482,45.404423,23.37482,45.404423",uuuu,85633745,,dcccc4d96a853540861c7990f3e1178a,,a1b92fbf06ab989fa60e31a826313ccf,45.404423,23.374820,85901899,uuuu,RO,RO,1531932593,45.404423,23.374820,101751987,Slătioara,101751987,859/018/99/85901899.geojson,neighbourhood,85687671,mz,,,RO
"24.791155,46.218456,24.791155,46.218456",uuuu,85633745,,beae9e4111a013469af2d40388ef5c10,,3be1a0a6d1756f3bef0e705e7316590a,46.218456,24.791155,85901947,uuuu,RO,RO,1531932607,46.218456,24.791155,101834093,Viilor,101834093,859/019/47/85901947.geojson,neighbourhood,85687719,mz,,,RO
"26.775047,46.255201,26.775047,46.255201",uuuu,85633745,,c168e0905e5f9263195b6745704fcf10,,23e46028bd6cb9ae5f8bfc7ad9b6f799,46.255201,26.775047,85901905,uuuu,RO,RO,1531932595,46.255201,26.775047,101752013,Stejaru,101752013,859/019/05/85901905.geojson,neighbourhood,85687715,mz,,,RO
"21.888067,45.297164,21.888067,45.297164",uuuu,85633745,,d9429dd85829c3484a62ae77a2234e0b,,9954efc218df4c18838449ecac56df43,45.297164,21.888067,85901879,uuuu,RO,RO,1531932588,45.297164,21.888067,101792695,Reșița Montana,101792695,859/018/79/85901879.geojson,neighbourhood,85687627,mz,,,RO
"21.232338,45.75998,21.232338,45.75998",uuuu,85633745,,5e99e5ee87853d684a0c3b8a7f01d1e8,,f0ab69b3a11db198d44b72a76d1b8d45,45.759980,21.232338,85901881,uuuu,RO,RO,1531932589,45.759980,21.232338,101751973,Ronaț,101751973,859/018/81/85901881.geojson,neighbourhood,85687655,mz,,,RO
"21.319173,46.179533,21.319173,46.179533",uuuu,85633745,,ed01af3dc50387cd4ea1ad7dac91c50e,,489ccd245448168feb4c1cbffe61c2c0,46.179533,21.319173,85901907,uuuu,RO,RO,1531932595,46.179533,21.319173,101751999,Subcetate,101751999,859/019/07/85901907.geojson,neighbourhood,85687691,mz,,,RO
"25.653861,45.606069,25.653861,45.606069",uuuu,85633745,,9f9772c1a8b54f7333defe74e9ea46c9,,4326adf39ed17527c38b2fcc7a4126d1,45.606069,25.653861,85901761,uuuu,RO,RO,1531932561,45.606069,25.653861,101790893,Dîrste,101790893,859/017/61/85901761.geojson,neighbourhood,85687683,mz,,,RO
"25.433899,45.708096,25.433899,45.708096",uuuu,85633745,,544b242b8f2bc1a1d698bedb656e56df,,847afdb5ff3b2de770490ff33bd8a270,45.708096,25.433899,85901735,uuuu,RO,RO,1534379453,45.708096,25.433899,-1,Colonia Ţiganilor,-1,859/017/35/85901735.geojson,neighbourhood,85687683,mz,,1126107001,RO
"23.891932,47.927583,23.891932,47.927583",uuuu,85633745,,d853460aad4546943b21d661d59196fb,,254cf416d9c14001cdb78a9761782924,47.927583,23.891932,85901909,uuuu,RO,RO,1531932596,47.927583,23.891932,101833687,Şugău,101833687,859/019/09/85901909.geojson,neighbourhood,85687761,mz,,,RO
"23.898619,47.928067,23.898619,47.928067",uuuu,85633745,,1bb01a219ef711eff529b2e21abbcc05,,97dfcaec02ffffd47c216343852aeea2,47.928067,23.898619,85901763,uuuu,RO,RO,1531932561,47.928067,23.898619,101833687,Dobăeș,101833687,859/017/63/85901763.geojson,neighbourhood,85687761,mz,,,RO
"26.933702,46.913171,26.933702,46.913171",uuuu,85633745,,0b1602e419dfb9f31464fdd431764fcc,,90e5e2b3c0ea4beab6efc4b1a7f36168,46.913171,26.933702,85901837,uuuu,RO,RO,1531932577,46.913171,26.933702,101832623,Nicolae Bălcescu,101832623,859/018/37/85901837.geojson,neighbourhood,85687747,mz,,,RO
"28.637717,44.213342,28.637717,44.213342",uuuu,85633745,,d3e8bc82126fd343591cd3d95db94399,,b5b1f0fea9f7ecf43277233567087bc1,44.213342,28.637717,85901911,uuuu,RO,RO,1531932597,44.213342,28.637717,101751965,Tăbăcărie,101751965,859/019/11/85901911.geojson,neighbourhood,85687633,mz,,,RO
"24.792082,46.221877,24.792082,46.221877",uuuu,85633745,,8662de7eb67ef6c82cfe012793143f69,,9180cddc5827ca46f39e776f37e8d7f1,46.221877,24.792082,85901883,uuuu,RO,RO,1531932589,46.221877,24.792082,101834093,Rusu,101834093,859/018/83/85901883.geojson,neighbourhood,85687719,mz,,,RO
"26.14196777339998,44.43321421712632,26.17703546195111,44.46051342167702",uuuu,85633745,,9a57ce7672d71884953f09bfc204a924,,8b62c393ff923309c3d90d1f5bc0dfe8,44.447841,26.159079,85901737,uuuu,RO,RO,1497314465,44.444413,26.154174,101751949,Coloniști,101751949,859/017/37/85901737.geojson,neighbourhood,85687595,quattroshapes,,,RO
"21.939697,45.298075,21.939697,45.298075",uuuu,85633745,,50669be718e2e8aedfc7ec37e4c915b1,,76417bc8db106d132cd0232096f122df,45.298075,21.939697,85901915,uuuu,RO,RO,1531932597,45.298075,21.939697,-1,Ţerova,-1,859/019/15/85901915.geojson,neighbourhood,85687627,mz,,,RO
"22.219271,45.414283,22.219271,45.414283",uuuu,85633745,,de11cc3c53d02a0bb5e1bea9a7065ba3,,97c3e209193819c3f489492b10b49ac6,45.414283,22.219271,85901917,uuuu,RO,RO,1531932598,45.414283,22.219271,101792667,Teuș,101792667,859/019/17/85901917.geojson,neighbourhood,85687627,mz,,,RO
"26.0235693445286,44.4647879044356,26.08428955080024,44.53588466750007",uuuu,85633745,,a57750694dcb068bc35a4a207a8626a7,,f7be74e5a526ddd110ed3f3e423035cb,44.494845,26.049450,85901757,uuuu,RO,RO,1527638941,44.489022,26.055557,101751949,Damaroaia,101751949,859/017/57/85901757.geojson,neighbourhood,85687595,quattroshapes,,,RO
"28.633929,44.197748,28.633929,44.197748",uuuu,85633745,,05beb573a641c63d73bf1457a7a45f0d,,030820657b3018b0f12469ac956fcb74,44.197748,28.633929,85901919,uuuu,RO,RO,1531932599,44.197748,28.633929,101751965,Tomis III,101751965,859/019/19/85901919.geojson,neighbourhood,85687633,mz,,,RO
"28.607954,44.212899,28.607954,44.212899",uuuu,85633745,,0b8330817c7d74f3f7eb40310b6c244e,,66795863bca85432ea65f6b1bdf00438,44.212899,28.607954,85901921,uuuu,RO,RO,1531932599,44.212899,28.607954,101753939,Tomis Nord,101753939,859/019/21/85901921.geojson,neighbourhood,85687633,mz,,,RO
"25.681843,45.607667,25.681843,45.607667",uuuu,85633745,,932017473480fce939ef7a3135f6b5ab,,a11c7c5f0177c263eeadf5b18b40e881,45.607667,25.681843,85901717,uuuu,RO,RO,1531932550,45.607667,25.681843,101790893,Cernatu,101790893,859/017/17/85901717.geojson,neighbourhood,85687683,mz,,,RO
"21.711938,46.10669,21.711938,46.10669",uuuu,85633745,,fca269fb639479761079005dd0539360,,2a3cf3380eae87551a1bd0e730d25331,46.106690,21.711938,85901901,uuuu,RO,RO,1531932593,46.106690,21.711938,-1,Şoimoș,-1,859/019/01/85901901.geojson,neighbourhood,85687691,mz,,,RO
"28.798463,45.180585,28.798463,45.180585",uuuu,85633745,2018-08-15,36fe5008cb5011f47d65cf39df6606a4,,484ec9ec01dfab46b3b7191f2b3f10fc,45.180585,28.798463,85901925,uuuu,RO,RO,1534379452,45.180585,28.798463,-1,Tudor Vladimirescu,-1,859/019/25/85901925.geojson,neighbourhood,85687679,mz,1126064895,,RO
"23.615627,46.774106,23.615627,46.774106",uuuu,85633745,,2ecfc4d15b8e89e75b29310a61ff413f,,8375611d65b06c81a565ad188f5066d3,46.774106,23.615627,85901903,uuuu,RO,RO,1531932594,46.774106,23.615627,101752019,Someșeni,101752019,859/019/03/85901903.geojson,neighbourhood,85687727,mz,,,RO
"24.14598,45.79288,24.14598,45.79288",uuuu,85633745,,fcec7eed4b0fe46ea2cd808d34b1f0f6,,de7dd3f46097e893e38de802bb19004a,45.792880,24.145980,85901927,uuuu,RO,RO,1531932601,45.792880,24.145980,101751997,Turnișor,101751997,859/019/27/85901927.geojson,neighbourhood,85687687,mz,,,RO
"23.273977,45.040969,23.273977,45.040969",uuuu,85633745,,0183196bffa83d4d4e4250bfe1666182,,efcd84c96f27ba3c066b1a757b5da903,45.040969,23.273977,85901929,uuuu,RO,RO,1531932602,45.040969,23.273977,101751959,Ulari,101751959,859/019/29/85901929.geojson,neighbourhood,85687619,mz,,,RO
"27.0401,45.388805,27.0401,45.388805",uuuu,85633745,,0029f9af41dd0d7398086e0b9f1fb82c,,c9e2c900a7e7938b8ce99f10e8caf3cc,45.388805,27.040100,85901955,uuuu,RO,RO,1531935838,45.388805,27.040100,101834761,Zidarii,101834761,859/019/55/85901955.geojson,neighbourhood,85687667,mz,,,RO
"24.488525,47.132752,24.488525,47.132752",uuuu,85633745,,1d9e8e35b675841a712b9f58919a3a61,,2eb1eeacc539b0a9bced3d8f683f5b3f,47.132752,24.488525,85901933,uuuu,RO,RO,1531932603,47.132752,24.488525,101752035,Unirea,101752035,859/019/33/85901933.geojson,neighbourhood,85687753,mz,,,RO
"23.794739,46.578121,23.794739,46.578121",uuuu,85633745,,8555332e088786bab16ce1ffa0f18fe3,,0b3486bbb44cf33ca8714a3b9424403a,46.578121,23.794739,85901935,uuuu,RO,RO,1531932603,46.578121,23.794739,101752021,Valea Caldă,101752021,859/019/35/85901935.geojson,neighbourhood,85687727,mz,,,RO
"26.911537,46.569099,26.911537,46.569099",uuuu,85633745,,06bc14bc399853b15d389b08ada946e3,,d64a223ac685badbf4651703ae47c071,46.569099,26.911537,85901937,uuuu,RO,RO,1531932604,46.569099,26.911537,101752009,Vasile Roaită,101752009,859/019/37/85901937.geojson,neighbourhood,85687715,mz,,,RO
"26.04822023529698,44.39948836182192,26.09252929690007,44.44162421760002",uuuu,85633745,,2be383b72a815fc3da76f0a8b1e0c72b,,451087e96875971af672420e45873481,44.420415,26.069810,85901939,uuuu,RO,RO,1497308710,44.431957,26.071807,101751949,Cotroceni,101751949,859/019/39/85901939.geojson,neighbourhood,85687595,quattroshapes,,,RO
"25.80727,46.368517,25.80727,46.368517",uuuu,85633745,,0b535b50ad17235831d6ce3a9de2cd0b,,c4d03acdb2f14c0ae40e9f7f215efc54,46.368517,25.807270,85901923,uuuu,RO,RO,1531932600,46.368517,25.807270,101752023,Toplița-Ciuc,101752023,859/019/23/85901923.geojson,neighbourhood,85687733,mz,,,RO
"27.972458,45.271622,27.972458,45.271622",uuuu,85633745,,e2c04fa51c105f4e6cf4d06a2f3f577c,,973ad0e0380882d9f477d411ed384ab3,45.271622,27.972458,85901941,uuuu,RO,RO,1531932605,45.271622,27.972458,101751979,Vatra Veche,101751979,859/019/41/85901941.geojson,neighbourhood,85687663,mz,,,RO
"26.08032451240467,44.42004964542558,26.128234863275,44.44162421760002",uuuu,85633745,,e074e46b53c53d5f0c20b3c107f5af10,,12b9aa3d8c1278a0fea3fb4368d134e3,44.430938,26.103547,85901783,uuuu,RO,RO,1527269212,44.410373,26.025783,101751949,Ghencea,101751949,859/017/83/85901783.geojson,neighbourhood,85687595,quattroshapes,,,RO
"26.1145019531001,44.38660562705489,26.14196777341675,44.41808794369997",uuuu,85633745,,3e1cfc2b6d2ab1ce7eed32b4abc7b50a,,a5aa3aa7ef78f2790584c55b31715f3b,44.402113,26.126521,85901953,uuuu,RO,RO,1527269222,44.416644,26.124822,101751949,Vitan,101751949,859/019/53/85901953.geojson,neighbourhood,85687595,quattroshapes,,,RO
"25.99189208985024,44.39042948570007,26.05407714842107,44.43377984610002",uuuu,85633745,,e5d4676e564f6f036a66f1252951883d,,e914fbd1da130ffdf3645c99921c48f8,44.414452,26.021418,85907567,uuuu,RO,RO,1527269193,44.422978,26.035894,101751949,Drumul Taberei,101751949,859/075/67/85907567.geojson,neighbourhood,85687595,quattroshapes,,,RO
"26.04904555267035,44.37865424050018,26.07420891664179,44.41220222985034",uuuu,85633745,,35eeb86dc7d66609f66c76be5831fd71,,50c58029278ea7447b2b5d4db7b893a1,44.393630,26.061160,85907569,uuuu,RO,RO,1505342944,44.401201,26.064064,101751949,Rahova,101751949,859/075/69/85907569.geojson,neighbourhood,85687595,quattroshapes,,,RO
"26.06710885525541,44.37865424050018,26.08843816328658,44.40631625270005",uuuu,85633745,,35652339f196980b67f46cd32800f838,,b387a0301ca5465c076857e4819bf3df,44.392724,26.078433,85907571,uuuu,RO,RO,1527269194,44.396488,26.078789,101751949,Ferentari,101751949,859/075/71/85907571.geojson,neighbourhood,85687595,quattroshapes,,,RO
"26.15191714828546,44.39435404090018,26.1986596679501,44.43130912241439",uuuu,85633745,,55226db3394691fe65ba973359bc492b,,81c33062a3638e3b0d0096e76c32da54,44.413400,26.174434,85907573,uuuu,RO,RO,1527269193,44.420081,26.167822,101751949,Titan,101751949,859/075/73/85907573.geojson,neighbourhood,85687595,quattroshapes,,,RO
"26.16104050656658,44.47228998965171,26.16104050656658,44.47228998965171",uuuu,85633745,,c68d029d1b03a41c777debad60fe851a,,7e5fc222d4460760201fd8fdfa05dc58,44.472290,26.161041,1108942573,uuuu,RO,RO,1497292369,44.472290,26.161041,101751949,Ion Creanga,101751949,110/894/257/3/1108942573.geojson,neighbourhood,85687595,,,,RO
"26.14593429779399,44.47882273286545,26.14593429779399,44.47882273286545",uuuu,85633745,,310f52c8c9b5297f98480513bb97eca5,,7f6547ba446f56eea4ef660fc1177807,44.478823,26.145934,1108942575,uuuu,RO,RO,1492123641,44.478823,26.145934,101751949,Andronache,101751949,110/894/257/5/1108942575.geojson,neighbourhood,85687595,,,,RO
"26.1278526236571,44.47261664418165,26.1278526236571,44.47261664418165",uuuu,85633745,,ec1af2d2cd891ba0811a78f8e76660af,,1c4a2012cc93eaad5797c1d5407a68e8,44.472617,26.127853,1108942577,uuuu,RO,RO,1492123641,44.472617,26.127853,101751949,Tei Toboc,101751949,110/894/257/7/1108942577.geojson,neighbourhood,85687595,,,,RO
"26.0924331417244,44.46547065889295,26.0924331417244,44.46547065889295",uuuu,85633745,,fe4b29afa399ca0422a1fd79bb9ce2bd,,dba4dbc89bff9b68b9b2e3acf4fcf07f,44.465471,26.092433,1108942581,uuuu,RO,RO,1514500098,44.465471,26.092433,101751949,Primaverii,101751949,110/894/258/1/1108942581.geojson,neighbourhood,85687595,,,,RO
"26.09723966269749,44.48490569233554,26.09723966269749,44.48490569233554",uuuu,85633745,,343efc7d5e4f8eb77d196161f7d73a90,,606cbcb70150dd35eba600e86997cbb4,44.484906,26.097240,1108942583,uuuu,RO,RO,1514499747,44.484906,26.097240,101751949,Aviatiei,101751949,110/894/258/3/1108942583.geojson,neighbourhood,85687595,,,,RO
"26.06777111149338,44.49825331964584,26.06777111149338,44.49825331964584",uuuu,85633745,,a3e8980d7bbde9fe97c882b824a6dd3e,,09d2923b150c104098bb5b0392d1c467,44.498253,26.067771,1108942585,uuuu,RO,RO,1514499759,44.498253,26.067771,101751949,Baneasa,101751949,110/894/258/5/1108942585.geojson,neighbourhood,85687595,,,,RO
"26.0336677007795,44.49302892417575,26.0336677007795,44.49302892417575",uuuu,85633745,,20d56f6636dcd203f112e60b2e6e9ab7,,bc3d41a879af8f4520330f1417350b8d,44.493029,26.033668,1108942589,uuuu,RO,RO,1514499809,44.493029,26.033668,101751949,Bucurestii Noi,101751949,110/894/258/9/1108942589.geojson,neighbourhood,85687595,,,,RO
"26.04888835052764,44.47972092786445,26.04888835052764,44.47972092786445",uuuu,85633745,,90540e84c50c9ca5f6141f78054af868,,a30562f0418a92c73c1dccd382e78c3c,44.479721,26.048888,1108942591,uuuu,RO,RO,1492123642,44.479721,26.048888,101751949,Pajura,101751949,110/894/259/1/1108942591.geojson,neighbourhood,85687595,,,,RO
"26.04122080516579,44.45914062864716,26.04122080516579,44.45914062864716",uuuu,85633745,,8895d42b1630264075518d1611430b81,,28a71c60098e2d15f5164b50a68effba,44.459141,26.041221,1108942595,uuuu,RO,RO,1497292367,44.459141,26.041221,101751949,Giulesti,101751949,110/894/259/5/1108942595.geojson,neighbourhood,85687595,,,,RO
"26.01318276615605,44.47122834980243,26.01318276615605,44.47122834980243",uuuu,85633745,,1e1922319d34ef73a1710eb4e1e6797a,,3c182e96474640eeaf9b3ccf1e1a7bb7,44.471228,26.013183,1108942597,uuuu,RO,RO,1497292367,44.471228,26.013183,101751949,Giulesti-Sarbi,101751949,110/894/259/7/1108942597.geojson,neighbourhood,85687595,,,,RO
"26.06433788222687,44.46191775776335,26.06433788222687,44.46191775776335",uuuu,85633745,,f70090c204a66ee5d6d5b7e966958041,,fe4dbfc314401a719dded844de3f35b3,44.461918,26.064338,1108942599,uuuu,RO,RO,1497292367,44.461918,26.064338,101751949,Grivita,101751949,110/894/259/9/1108942599.geojson,neighbourhood,85687595,,,,RO
"26.00251114518601,44.41676535247628,26.00251114518601,44.41676535247628",uuuu,85633745,,ad49521796013bb555a1036aeea53663,,f86e9c5e2118b7ed1b3923d353281688,44.416765,26.002511,1108942601,uuuu,RO,RO,1497292372,44.416765,26.002511,0,Brancusi,-1,110/894/260/1/1108942601.geojson,neighbourhood,85687595,,,,RO
"26.1076824017164,44.38831238531434,26.1076824017164,44.38831238531434",uuuu,85633745,,173d1eada91b07c3a12922396f1efaa4,,c5c4070b056f2a7e956b9398dde625da,44.388312,26.107682,1108942603,uuuu,RO,RO,1514499764,44.388312,26.107682,101751949,Berceni,101751949,110/894/260/3/1108942603.geojson,neighbourhood,85687595,,,,RO
"26.090745137335,44.39379147474521,26.090745137335,44.39379147474521",uuuu,85633745,,52e1226f3bfccf93c63f47d1fba760d4,,8cc96d1e72a9b8ee63f26132d89f64a8,44.393791,26.090745,1108942607,uuuu,RO,RO,1514499948,44.393791,26.090745,101751949,Giurgiului,101751949,110/894/260/7/1108942607.geojson,neighbourhood,85687595,,,,RO
"26.11643713634596,44.40282676893449,26.11643713634596,44.40282676893449",uuuu,85633745,,844ed95c62ad833abfc7787af52afabc,,0980e8f19b979d7d534d3366a0365c0f,44.402827,26.116437,1108942609,uuuu,RO,RO,1514500229,44.402827,26.116437,101751949,Vacaresti,101751949,110/894/260/9/1108942609.geojson,neighbourhood,85687595,,,,RO
"26.11025732366626,44.41312774180532,26.11025732366626,44.41312774180532",uuuu,85633745,,cf58284b63ba2de3e1c5971a332e203f,,fa0d8c41899eaf141b74c4202be93d43,44.413128,26.110257,1108942611,uuuu,RO,RO,1492123643,44.413128,26.110257,101751949,Tineretului,101751949,110/894/261/1/1108942611.geojson,neighbourhood,85687595,,,,RO
"26.08313481246093,44.42191484132117,26.08313481246093,44.42191484132117",uuuu,85633745,,aa1aee6d07bee27a0aae78d69f928093,,cf087112db864eb699ba20853e4c516f,44.421915,26.083135,1108942613,uuuu,RO,RO,1514499728,44.421915,26.083135,101751949,13 Septembrie,101751949,110/894/261/3/1108942613.geojson,neighbourhood,85687595,,,,RO
"26.11349028122555,44.41468090662686,26.11349028122555,44.41468090662686",uuuu,85633745,,f8c8a806161e7dea36258457f63d90bd,,c47503b2599bb7942db30e65bb362924,44.414681,26.113490,1108942615,uuuu,RO,RO,1492123643,44.414681,26.113490,101751949,Timpuri Noi,101751949,110/894/261/5/1108942615.geojson,neighbourhood,85687595,,,,RO
"26.08319203294871,44.46252268508245,26.08319203294871,44.46252268508245",uuuu,85633745,,de4aad70533f362d5b4fb60112505adc,,3377e5d2030191a97a277f31f6ae267e,44.462523,26.083192,1108942617,uuuu,RO,RO,1492123643,44.462523,26.083192,101751949,Aviatorilor,101751949,110/894/261/7/1108942617.geojson,neighbourhood,85687595,,,,RO
"26.08651082123965,44.4480231239101,26.08651082123965,44.4480231239101",uuuu,85633745,,20f3f54f926802258ae164088a83e703,,6f759f0984efa0be59f6bced73c5599d,44.448023,26.086511,1108942619,uuuu,RO,RO,1492123643,44.448023,26.086511,101751949,Victoriei,101751949,110/894/261/9/1108942619.geojson,neighbourhood,85687595,,,,RO
"26.09955709245233,44.42743164752163,26.09955709245233,44.42743164752163",uuuu,85633745,,de6b85278cc37deaa5f6ecbab8d35893,,cb209a370f8495c37c82e677bdbba10a,44.427432,26.099557,1108942621,uuuu,RO,RO,1514499836,44.427432,26.099557,101751949,Centrul Civic,101751949,110/894/262/1/1108942621.geojson,neighbourhood,85687595,,,,RO
"26.10018651781786,44.43180385739482,26.10018651781786,44.43180385739482",uuuu,85633745,,f1c6a698fe1e9da2b8775f50cba22875,,0a240c56ae52d02e0ca8a13d65e6cdba,44.431804,26.100187,1108942625,uuuu,RO,RO,1497292334,44.431804,26.100187,101751949,Centrul istoric,101751949,110/894/262/5/1108942625.geojson,neighbourhood,85687595,,,,RO
"26.09028737343279,44.42718646707608,26.09028737343279,44.42718646707608",uuuu,85633745,,58896579c410b8165f349e5dc7c05bb5,,e57791a1d2af9038107cb9b1960df87a,44.427186,26.090287,1108942627,uuuu,RO,RO,1497292372,44.427186,26.090287,101751949,Dealul Spirii,101751949,110/894/262/7/1108942627.geojson,neighbourhood,85687595,,,,RO
"26.14290161194186,44.4196058012201,26.14290161194186,44.4196058012201",uuuu,85633745,,8cafa568193cbd1a4eb70d63640a01d8,,1a6530e303fd1ff394324bc7c954db65,44.419606,26.142902,1108942631,uuuu,RO,RO,1492123643,44.419606,26.142902,101751949,Dristor,101751949,110/894/263/1/1108942631.geojson,neighbourhood,85687595,,,,RO
"26.07907215782889,44.44352957152695,26.07907215782889,44.44352957152695",uuuu,85633745,,010d63d438771a65fc1913251b2fe9a4,,a6797786ef4059bc27c18285fe77aaa9,44.443530,26.079072,1108942633,uuuu,RO,RO,1492123643,44.443530,26.079072,101751949,Gara de Nord,101751949,110/894/263/3/1108942633.geojson,neighbourhood,85687595,,,,RO
"26.13497657438503,44.44226314433064,26.13497657438503,44.44226314433064",uuuu,85633745,,6114ad64937d8108da6adfdaa569d7e9,,a6a3258b664d746628f47bb5595453c4,44.442263,26.134977,1108942635,uuuu,RO,RO,1492123643,44.442263,26.134977,101751949,Iancului,101751949,110/894/263/5/1108942635.geojson,neighbourhood,85687595,,,,RO
"26.11849707390583,44.44075156625551,26.11849707390583,44.44075156625551",uuuu,85633745,,673f7fe76a1ee1eea998cec700bb72b7,,22377613d7bdcbeaf029e46ec45753a2,44.440752,26.118497,1108942637,uuuu,RO,RO,1497292368,44.440752,26.118497,101751949,Mosilor,101751949,110/894/263/7/1108942637.geojson,neighbourhood,85687595,,,,RO
"26.12792772554723,44.45070121884714,26.12792772554723,44.45070121884714",uuuu,85633745,,aad09bc21c0fe07e68b2cdbe7fe0dfb5,,ffa120ea1e1de4eb0adf6a1b1eb07dea,44.450701,26.127928,1108942639,uuuu,RO,RO,1514500050,44.450701,26.127928,101751949,Obor,101751949,110/894/263/9/1108942639.geojson,neighbourhood,85687595,,,,RO
"26.05457106021972,44.44557470146486,26.05457106021972,44.44557470146486",uuuu,85633745,,289140c326cdf14beeee98635754c3bb,,8463a3b5ef371f707f0ea3d1ce47b686,44.445575,26.054571,1108942645,uuuu,RO,RO,1492123644,44.445575,26.054571,101751949,Regie,101751949,110/894/264/5/1108942645.geojson,neighbourhood,85687595,,,,RO
"26.10389512068174,44.45215127048423,26.10389512068174,44.45215127048423",uuuu,85633745,,c86818565c943342c794e57948b9c8ca,,a0323a998af3787e9bca23c3123deb77,44.452151,26.103895,1108942647,uuuu,RO,RO,1497292369,44.452151,26.103895,101751949,Stefan cel Mare,101751949,110/894/264/7/1108942647.geojson,neighbourhood,85687595,,,,RO
"26.14360613919755,44.4395693419596,26.14360613919755,44.4395693419596",uuuu,85633745,,97049faf28f4b082cbdcb7f50a329c3e,,d516cbe902f0b628426c90169805826d,44.439569,26.143606,1108942649,uuuu,RO,RO,1497292369,44.439569,26.143606,101751949,Vatra Luminoasa,101751949,110/894/264/9/1108942649.geojson,neighbourhood,85687595,,,,RO
"26.10572617629052,44.4290278484943,26.10572617629052,44.4290278484943",uuuu,85633745,,625c7e1b72afd07a261399b1ac4a5479,,cefe11dfea8c7b06eafb6a49d6b13fc8,44.429028,26.105726,1108942651,uuuu,RO,RO,1492123644,44.429028,26.105726,101751949,Unirii,101751949,110/894/265/1/1108942651.geojson,neighbourhood,85687595,,,,RO
"26.13702578310342,44.45304987596512,26.13702578310342,44.45304987596512",uuuu,85633745,,71d60b4cc24abd9701aea74d7283af8d,,05682ace7926cc51fbccb02a24dbd96d,44.453050,26.137026,1108942655,uuuu,RO,RO,1492123644,44.453050,26.137026,101751949,Sectorul 2,101751949,110/894/265/5/1108942655.geojson,neighbourhood,85687595,,,,RO
"26.15030093626721,44.42232605515358,26.15030093626721,44.42232605515358",uuuu,85633745,,8445244008805299fb71b8ce849601a0,,4e5ac8b6c8fb2e0f73b8c271bec9eb23,44.422326,26.150301,1108942657,uuuu,RO,RO,1492123644,44.422326,26.150301,101751949,Sectorul 3,101751949,110/894/265/7/1108942657.geojson,neighbourhood,85687595,,,,RO
"26.06675902411575,44.41039168464095,26.06675902411575,44.41039168464095",uuuu,85633745,,1fa7b7de929c5123a9b085d4c2407d4c,,fa8bb73206da208e56c1efde2fc7a482,44.410392,26.066759,1108942661,uuuu,RO,RO,1492123644,44.410392,26.066759,101751949,Sectorul 5,101751949,110/894/266/1/1108942661.geojson,neighbourhood,85687595,,,,RO
"26.03357114120627,44.43801683830156,26.03357114120627,44.43801683830156",uuuu,85633745,,5ad274c11501f5776dac4aef314440d3,,8fe9cb7133807d2df86f5e73b27ce232,44.438017,26.033571,1108942663,uuuu,RO,RO,1492123644,44.438017,26.033571,101751949,Sectorul 6,101751949,110/894/266/3/1108942663.geojson,neighbourhood,85687595,,,,RO
"26.11894410896653,44.37784605749808,26.11894410896653,44.37784605749808",uuuu,85633745,,4f4d7c80629a4f96e605de7989ab0086,,81c1e02157688ff0320e72716ffcb15a,44.377846,26.118944,1108942665,uuuu,RO,RO,1492123644,44.377846,26.118944,101751949,Sectorul 4,101751949,110/894/266/5/1108942665.geojson,neighbourhood,85687595,,,,RO
"26.05918803832712,44.47506649899157,26.05918803832712,44.47506649899157",uuuu,85633745,,11d95e1d33585487d27d39409899732c,,f0a48b6bf75a40b8c7134b70e013a537,44.475066,26.059188,1108942593,uuuu,RO,RO,1497292372,44.475066,26.059188,101751949,Domenii,101751949,110/894/259/3/1108942593.geojson,neighbourhood,85687595,,,,RO
"26.0947076561134,44.45828550961227,26.0947076561134,44.45828550961227",uuuu,85633745,,d97ef269be6c3d77be237c6f7c6aa4ea,,3a8935641b124d52094834651e81d21b,44.458286,26.094708,1108942629,uuuu,RO,RO,1514499911,44.458286,26.094708,101751949,Dorobanti,101751949,110/894/262/9/1108942629.geojson,neighbourhood,85687595,,,,RO
"26.19874880801028,44.42529394690332,26.19874880801028,44.42529394690332",uuuu,85633745,,33d79c8231334eda990513cb9c681132,,00207a76e19d8c90fd1aa57cb1d1982d,44.425294,26.198749,1108942567,uuuu,RO,RO,1492123641,44.425294,26.198749,101751949,23 August,101751949,110/894/256/7/1108942567.geojson,neighbourhood,85687595,,,,RO
"26.15680619047124,44.43945188424372,26.15680619047124,44.43945188424372",uuuu,85633745,,65caa145bbe2c351bd85b735eed584c1,,2f4eb492e91bae9c2a23df6487bc4425,44.439452,26.156806,1108942571,uuuu,RO,RO,1514500064,44.439452,26.156806,101751949,Pantelimon,101751949,110/894/257/1/1108942571.geojson,neighbourhood,85687595,,,,RO
"26.11864012512533,44.4602433278971,26.11864012512533,44.4602433278971",uuuu,85633745,,34d4579da344f531ae4e0d837a6b7504,,a20e5a01728a8a96fa9fb6f495f4ec28,44.460243,26.118640,1108942579,uuuu,RO,RO,1514500191,44.460243,26.118640,101751949,Tei,101751949,110/894/257/9/1108942579.geojson,neighbourhood,85687595,,,,RO
"26.11373704457905,44.39610408530474,26.11373704457905,44.39610408530474",uuuu,85633745,,00072a404bed728979a1db81836cba7b,,d559843366dd05b19cb2257f67f06ff3,44.396104,26.113737,1108942643,uuuu,RO,RO,1497292369,44.396104,26.113737,101751949,Oltenitei,101751949,110/894/264/3/1108942643.geojson,neighbourhood,85687595,,,,RO
"26.07614318411085,44.47052915373236,26.07614318411085,44.47052915373236",uuuu,85633745,,5d91b77890f7e228c7688b26a78f490e,,c24ad6d86d6e3357ad3c7ad1c98caaec,44.470529,26.076143,1108942653,uuuu,RO,RO,1492123644,44.470529,26.076143,101751949,Sectorul 1,101751949,110/894/265/3/1108942653.geojson,neighbourhood,85687595,,,,RO
